[{"OBJECT_ID":"2014-083B","OBJECT_NAME":"O3B FM11","NORAD_CAT_ID":"40349","OBJECT_TYPE":"PAYLOAD","PERIOD":"287.933","INCLINATION":"0.0355","APOGEE":"8070.193","PERIGEE":"8061.575","ECCENTRICITY":"0.0002983","MEAN_MOTION":"5.00115904","TLE_LINE1":"1 40349U 14083B   16238.53404922 -.00000028 +00000-0 +00000-0 0  9996","TLE_LINE2":"2 40349 000.0355 354.1565 0002983 147.0227 218.8410 05.00115904030810","LAUNCH_DATE":"2014-12-18","LAUNCH_SITE":"FRENCH GUIANA","OWNER":"O3B NETWORKS","ORBIT_TYPE":"Unclassified","OPERATIONAL_STATUS":"Operational","satInfo":{"lng":84.81802161784587,"lat":0.023394666848130175,"elevation":-23.743937954226833,"azimuth":230.18197838215414,"range":15773.616716511677,"height":8060.308707229974,"velocity":5.25579311498318},"x":67,"y":-6,"dx":0.4746997319940256,"dy":-5.234311934910776},{"OBJECT_ID":"2014-083C","OBJECT_NAME":"O3B FM12","NORAD_CAT_ID":"40350","OBJECT_TYPE":"PAYLOAD","PERIOD":"287.933","INCLINATION":"0.036","APOGEE":"8069.890","PERIGEE":"8061.888","ECCENTRICITY":"0.000277","MEAN_MOTION":"5.00115652","TLE_LINE1":"1 40350U 14083C   16238.60087405 -.00000028 +00000-0 +00000-0 0  9999","TLE_LINE2":"2 40350 000.0360 355.8082 0002770 156.4298 207.7756 05.00115652030827","LAUNCH_DATE":"2014-12-18","LAUNCH_SITE":"FRENCH GUIANA","OWNER":"O3B NETWORKS","ORBIT_TYPE":"Unclassified","OPERATIONAL_STATUS":"Operational","satInfo":{"lng":-36.62326610793221,"lat":-0.025994743612731432,"elevation":-23.77689359769701,"azimuth":351.6232661079322,"range":15783.806058634507,"height":8065.977958558948,"velocity":5.2537319472692525},"x":-40,"y":-53,"dx":4.216515492971484,"dy":3.1341181329504813},{"OBJECT_ID":"2014-083D","OBJECT_NAME":"O3B FM9","NORAD_CAT_ID":"40351","OBJECT_TYPE":"PAYLOAD","PERIOD":"287.933","INCLINATION":"0.0346","APOGEE":"8069.780","PERIGEE":"8062.012","ECCENTRICITY":"0.0002689","MEAN_MOTION":"5.0011526","TLE_LINE1":"1 40351U 14083D   16238.57867597 -.00000028  00000-0  00000+0 0  9993","TLE_LINE2":"2 40351   0.0346 353.1395 0002689 145.3992 221.4806  5.00115260 30821","LAUNCH_DATE":"2014-12-18","LAUNCH_SITE":"FRENCH GUIANA","OWNER":"O3B NETWORKS","ORBIT_TYPE":"Unclassified","OPERATIONAL_STATUS":"Operational","satInfo":{"lng":1.7381878017942836,"lat":-0.03489640964939266,"elevation":-23.789343945923225,"azimuth":313.26181219820575,"range":15781.566985599671,"height":8062.547156567007,"velocity":5.254981092006551},"x":2,"y":-66,"dx":5.252563093744213,"dy":-0.15939643528818825},{"OBJECT_ID":"2014-083E","OBJECT_NAME":"FREGAT R/B","NORAD_CAT_ID":"40352","OBJECT_TYPE":"ROCKET BODY","PERIOD":"276.566","INCLINATION":"0.0612","APOGEE":"7692.891","PERIGEE":"7673.495","ECCENTRICITY":"0.0006897","MEAN_MOTION":"5.20670821","TLE_LINE1":"1 40352U 14083E   16238.46724938 -.00000025 +00000-0 +00000-0 0  9991","TLE_LINE2":"2 40352 000.0612 250.8641 0006897 032.5044 076.5535 05.20670821032073","LAUNCH_DATE":"2014-12-18","LAUNCH_SITE":"FRENCH GUIANA","OWNER":"COMMONWEALTH OF INDEPENDENT STATES","ORBIT_TYPE":"Unclassified","OPERATIONAL_STATUS":"N/A, derelict rocket body","satInfo":{"lng":83.47821292316291,"lat":-0.15686873336943583,"elevation":-24.44530511912959,"azimuth":231.5217870768371,"range":15454.684274691737,"height":7691.191330059014,"velocity":5.3217818453384265},"x":64,"y":-7,"dx":0.6044533966819908,"dy":-5.28734319867864},{"OBJECT_ID":"2014-085A","OBJECT_NAME":"DUMMY SAT 2/BREEZE-M","NORAD_CAT_ID":"40355","OBJECT_TYPE":"PAYLOAD","PERIOD":"1530.920","INCLINATION":"1.5239","APOGEE":"39081.379","PERIGEE":"36164.223","ECCENTRICITY":"0.0331488","MEAN_MOTION":"0.94061063","TLE_LINE1":"1 40355U 14085A   16238.21435198 -.00000166 +00000-0 +00000-0 0  9992","TLE_LINE2":"2 40355 001.5239 092.1985 0331488 260.4590 096.2128 00.94061063005514","LAUNCH_DATE":"2014-12-23","LAUNCH_SITE":"PLESETSK MISSILE AND SPACE COMPLEX","OWNER":"COMMONWEALTH OF INDEPENDENT STATES","ORBIT_TYPE":"Unclassified","OPERATIONAL_STATUS":"Nonoperational","satInfo":{"lng":-136.6634073006142,"lat":1.5561578896725987,"elevation":-6.501998858803797,"azimuth":91.66340730061421,"range":45341.84236161831,"height":38688.66781162176,"velocity":2.9377929222850483},"x":-223,"y":230,"dx":-2.1367584470494507,"dy":2.016157383041052},{"OBJECT_ID":"2014-089A","OBJECT_NAME":"ASTRA 2G","NORAD_CAT_ID":"40364","OBJECT_TYPE":"PAYLOAD","PERIOD":"1436.140","INCLINATION":"0.0509","APOGEE":"35799.957","PERIGEE":"35774.961","ECCENTRICITY":"0.0002964","MEAN_MOTION":"1.00268709","TLE_LINE1":"1 40364U 14089A   16238.99210362  .00000122  00000-0  00000+0 0  9995","TLE_LINE2":"2 40364   0.0509 307.2893 0002964 146.5807 266.1570  1.00268709  6104","LAUNCH_DATE":"2014-12-27","LAUNCH_SITE":"TYURATAM MISSILE AND SPACE COMPLEX","OWNER":"SOCIÉTÉ EUROPÉENNE DES SATELLITES","ORBIT_TYPE":"Geosynchronous","OPERATIONAL_STATUS":"Operational","satInfo":{"lng":69.17153058656942,"lat":0.9526690279282232,"elevation":-7.649718651773391,"azimuth":245.82846941343058,"range":42499.66649114219,"height":35749.116806213075,"velocity":3.0764586589367253},"x":280,"y":-104,"dx":1.0939007721102252,"dy":-2.8754093588432603},{"OBJECT_ID":"2014-090A","OBJECT_NAME":"FENGYUN 2G","NORAD_CAT_ID":"40367","OBJECT_TYPE":"PAYLOAD","PERIOD":"1436.040","INCLINATION":"1.0482","APOGEE":"35795.913","PERIGEE":"35775.084","ECCENTRICITY":"0.000247","MEAN_MOTION":"1.00275701","TLE_LINE1":"1 40367U 14090A   16238.86176439 -.00000357  00000-0  00000+0 0  9993","TLE_LINE2":"2 40367   1.0482 270.2868 0002470 321.8385 157.2565  1.00275701  6126","LAUNCH_DATE":"2014-12-31","LAUNCH_SITE":"Xichang Space Center, China","OWNER":"PEOPLES REPUBLIC OF CHINA","ORBIT_TYPE":"Geosynchronous","OPERATIONAL_STATUS":"Operational","satInfo":{"lng":49.805676255792925,"lat":0.28451212501876644,"elevation":-8.291917795335294,"azimuth":265.19432374420705,"range":42629.360038897816,"height":35806.101333894396,"velocity":3.0735989826003256},"x":229,"y":-190,"dx":1.9836455070849428,"dy":-2.3477992265233154},{"OBJECT_ID":"2014-090C","OBJECT_NAME":"FENGYUN 2G AKM","NORAD_CAT_ID":"40369","OBJECT_TYPE":"ROCKET BODY","PERIOD":"1446.060","INCLINATION":"1.1051","APOGEE":"36172.100","PERIGEE":"35790.678","ECCENTRICITY":"0.0045022","MEAN_MOTION":"0.99580923","TLE_LINE1":"1 40369U 14090C   16237.65774933  .00000089  00000-0  00000+0 0  9995","TLE_LINE2":"2 40369   1.1051 270.9330 0045022 264.7656  94.1940  0.99580923  6003","LAUNCH_DATE":"2014-12-31","LAUNCH_SITE":"Xichang Space Center, China","OWNER":"PEOPLES REPUBLIC OF CHINA","ORBIT_TYPE":"Geosynchronous","OPERATIONAL_STATUS":"N/A, derelict rocket body","satInfo":{"lng":95.78016302609535,"lat":-0.6591356767319396,"elevation":-9.17847332534939,"azimuth":219.21983697390465,"range":42905.85360574433,"height":35981.161552332014,"velocity":3.0676087462279407},"x":300,"y":29,"dx":-0.3089445305226866,"dy":-3.0520119097071485},{"OBJECT_ID":"2015-005A","OBJECT_NAME":"INMARSAT 5-F2","NORAD_CAT_ID":"40384","OBJECT_TYPE":"PAYLOAD","PERIOD":"1436.121","INCLINATION":"0.0187","APOGEE":"35789.702","PERIGEE":"35784.456","ECCENTRICITY":"6.22e-05","MEAN_MOTION":"1.00270064","TLE_LINE1":"1 40384U 15005A   16239.21276200 -.00000314  00000-0  00000+0 0  9999","TLE_LINE2":"2 40384   0.0187 134.6307 0000622 156.5994  65.2438  1.00270064  5755","LAUNCH_DATE":"2015-02-01","LAUNCH_SITE":"TYURATAM MISSILE AND SPACE COMPLEX","OWNER":"INTERNATIONAL MARITIME SATELLITE ORGANIZATION (INMARSAT)","ORBIT_TYPE":"Geosynchronous","OPERATIONAL_STATUS":"Operational","satInfo":{"lng":-60.536634677184374,"lat":-0.38385956026154877,"elevation":-8.947288530412434,"azimuth":15.53663467718439,"range":42689.819308920254,"height":35793.171244028745,"velocity":3.074548307074638},"x":-261,"y":-145,"dx":1.5122687222915525,"dy":2.6769181168116067},{"OBJECT_ID":"2015-010A","OBJECT_NAME":"ABS 3A","NORAD_CAT_ID":"40424","OBJECT_TYPE":"PAYLOAD","PERIOD":"1436.087","INCLINATION":"0.0151","APOGEE":"35796.211","PERIGEE":"35776.630","ECCENTRICITY":"0.0002322","MEAN_MOTION":"1.00272414","TLE_LINE1":"1 40424U 15010A   16238.08118883 -.00000052  00000-0  00000+0 0  9995","TLE_LINE2":"2 40424   0.0151 109.2356 0002322 323.3193 287.4653  1.00272414  5485","LAUNCH_DATE":"2015-03-02","LAUNCH_SITE":"AIR FORCE EASTERN TEST RANGE","OWNER":"PEOPLES REPUBLIC OF CHINA","ORBIT_TYPE":"Geosynchronous","OPERATIONAL_STATUS":"Operational","satInfo":{"lng":27.312060627286574,"lat":-1.8268928649163547,"elevation":-10.35139371960908,"azimuth":287.6879393727134,"range":42855.23207504533,"height":35801.012070570076,"velocity":3.0743890366505653},"x":138,"y":-261,"dx":2.7316582014974666,"dy":-1.410642200867682},{"OBJECT_ID":"2015-010B","OBJECT_NAME":"EUTE 115 WEST B(SATMEX 7","NORAD_CAT_ID":"40425","OBJECT_TYPE":"PAYLOAD","PERIOD":"1436.116","INCLINATION":"0.0028","APOGEE":"35787.266","PERIGEE":"35786.684","ECCENTRICITY":"6.9e-06","MEAN_MOTION":"1.00270436","TLE_LINE1":"1 40425U 15010B   16238.39110867 -.00000051  00000-0  00000+0 0  9993","TLE_LINE2":"2 40425   0.0028  95.0956 0000069  84.9416 179.9629  1.00270436  5515","LAUNCH_DATE":"2015-03-02","LAUNCH_SITE":"AIR FORCE EASTERN TEST RANGE","OWNER":"EUROPEAN TELECOMMUNICATIONS SATELLITE ORGANIZATION (EUTELSAT)","ORBIT_TYPE":"Geosynchronous","OPERATIONAL_STATUS":"Operational","satInfo":{"lng":-106.25852102723447,"lat":-0.26785591046395457,"elevation":-8.836579360574138,"azimuth":61.25852102723444,"range":42664.71015808922,"height":35780.62500540359,"velocity":3.0749181564854324},"x":-288,"y":82,"dx":-0.8608903389353237,"dy":2.9519467294332387}]